{
  "type": "FeatureCollection",
  "features": [
    {
      "type": "Feature",
      "properties": {
        "norad_id": 66814,
        "name": "STARLINK-35984",
        "group": "last-30-days",
        "lat": 20.46219701934709,
        "lon": 22.40639379882794,
        "alt_km": 344.30330029219203,
        "timestamp": "2025-12-16T23:36:34.924285+00:00",
        "meta_object_name": "STARLINK-35984",
        "meta_object_id": "2025-278Z",
        "meta_epoch": "2025-12-16T06:00:02.999808",
        "meta_mean_motion": 15.75819041,
        "meta_eccentricity": 0.00015352,
        "meta_inclination": 42.9988,
        "meta_ra_of_asc_node": 230.4646,
        "meta_arg_of_pericenter": 267.2987,
        "meta_mean_anomaly": 36.5637,
        "meta_ephemeris_type": 0,
        "meta_classification_type": "U",
        "meta_norad_cat_id": 66814,
        "meta_element_set_no": 999,
        "meta_rev_at_epoch": 361,
        "meta_bstar": -0.0070435982,
        "meta_mean_motion_dot": -0.01012536,
        "meta_mean_motion_ddot": 0,
        "tle_line1": "1 66814U 25278Z   25350.25003472 -.01012536  00000+0 -70436-2 0  9998",
        "tle_line2": "2 66814  42.9988 230.4646 0001535 267.2987  36.5637 15.75819041  3618"
      },
      "geometry": {
        "type": "Point",
        "coordinates": [
          22.40639379882794,
          20.46219701934709
        ]
      }
    },
    {
      "type": "Feature",
      "properties": {
        "norad_id": 66815,
        "name": "STARLINK-35985",
        "group": "last-30-days",
        "lat": 21.661163437360532,
        "lon": 20.787702923670054,
        "alt_km": 344.42658233153634,
        "timestamp": "2025-12-16T23:36:34.924302+00:00",
        "meta_object_name": "STARLINK-35985",
        "meta_object_id": "2025-278AA",
        "meta_epoch": "2025-12-16T06:00:02.999808",
        "meta_mean_motion": 15.75871289,
        "meta_eccentricity": 0.00016799,
        "meta_inclination": 42.9986,
        "meta_ra_of_asc_node": 230.469,
        "meta_arg_of_pericenter": 273.5029,
        "meta_mean_anomaly": 28.3987,
        "meta_ephemeris_type": 0,
        "meta_classification_type": "U",
        "meta_norad_cat_id": 66815,
        "meta_element_set_no": 999,
        "meta_rev_at_epoch": 361,
        "meta_bstar": -0.0073949438,
        "meta_mean_motion_dot": -0.01060326,
        "meta_mean_motion_ddot": 0,
        "tle_line1": "1 66815U 25278AA  25350.25003472 -.01060326  00000+0 -73949-2 0  9991",
        "tle_line2": "2 66815  42.9986 230.4690 0001679 273.5029  28.3987 15.75871289  3611"
      },
      "geometry": {
        "type": "Point",
        "coordinates": [
          20.787702923670054,
          21.661163437360532
        ]
      }
    },
    {
      "type": "Feature",
      "properties": {
        "norad_id": 66816,
        "name": "STARLINK-36098",
        "group": "last-30-days",
        "lat": 26.243747749539114,
        "lon": 14.09250695171853,
        "alt_km": 344.7843523557058,
        "timestamp": "2025-12-16T23:36:34.924313+00:00",
        "meta_object_name": "STARLINK-36098",
        "meta_object_id": "2025-278AB",
        "meta_epoch": "2025-12-16T06:00:02.999808",
        "meta_mean_motion": 15.76589994,
        "meta_eccentricity": 0.00018733,
        "meta_inclination": 42.9987,
        "meta_ra_of_asc_node": 230.4908,
        "meta_arg_of_pericenter": 283.5972,
        "meta_mean_anomaly": 9.9782,
        "meta_ephemeris_type": 0,
        "meta_classification_type": "U",
        "meta_norad_cat_id": 66816,
        "meta_element_set_no": 999,
        "meta_rev_at_epoch": 336,
        "meta_bstar": -0.011272118,
        "meta_mean_motion_dot": -0.01646598,
        "meta_mean_motion_ddot": 0,
        "tle_line1": "1 66816U 25278AB  25350.25003472 -.01646598  00000+0 -11272-1 0  9993",
        "tle_line2": "2 66816  42.9987 230.4908 0001873 283.5972   9.9782 15.76589994  3369"
      },
      "geometry": {
        "type": "Point",
        "coordinates": [
          14.09250695171853,
          26.243747749539114
        ]
      }
    },
    {
      "type": "Feature",
      "properties": {
        "norad_id": 66817,
        "name": "STARLINK-35995",
        "group": "last-30-days",
        "lat": 24.067204413330405,
        "lon": 17.385836639638242,
        "alt_km": 345.16287116765216,
        "timestamp": "2025-12-16T23:36:34.924324+00:00",
        "meta_object_name": "STARLINK-35995",
        "meta_object_id": "2025-278AC",
        "meta_epoch": "2025-12-16T06:00:02.999808",
        "meta_mean_motion": 15.76282023,
        "meta_eccentricity": 0.00020218,
        "meta_inclination": 42.9987,
        "meta_ra_of_asc_node": 230.4801,
        "meta_arg_of_pericenter": 280.0093,
        "meta_mean_anomaly": 17.7139,
        "meta_ephemeris_type": 0,
        "meta_classification_type": "U",
        "meta_norad_cat_id": 66817,
        "meta_element_set_no": 999,
        "meta_rev_at_epoch": 352,
        "meta_bstar": -0.010174924,
        "meta_mean_motion_dot": -0.01458293,
        "meta_mean_motion_ddot": 0,
        "tle_line1": "1 66817U 25278AC  25350.25003472 -.01458293  00000+0 -10175-1 0  9998",
        "tle_line2": "2 66817  42.9987 230.4801 0002021 280.0093  17.7139 15.76282023  3528"
      },
      "geometry": {
        "type": "Point",
        "coordinates": [
          17.385836639638242,
          24.067204413330405
        ]
      }
    },
    {
      "type": "Feature",
      "properties": {
        "norad_id": 66818,
        "name": "STARLINK-35994",
        "group": "last-30-days",
        "lat": 25.1445299006726,
        "lon": 15.784483206535443,
        "alt_km": 344.29133839587394,
        "timestamp": "2025-12-16T23:36:34.924336+00:00",
        "meta_object_name": "STARLINK-35994",
        "meta_object_id": "2025-278AD",
        "meta_epoch": "2025-12-16T06:00:02.999808",
        "meta_mean_motion": 15.76344035,
        "meta_eccentricity": 0.0001651,
        "meta_inclination": 42.9987,
        "meta_ra_of_asc_node": 230.4855,
        "meta_arg_of_pericenter": 266.3514,
        "meta_mean_anomaly": 29.3664,
        "meta_ephemeris_type": 0,
        "meta_classification_type": "U",
        "meta_norad_cat_id": 66818,
        "meta_element_set_no": 999,
        "meta_rev_at_epoch": 352,
        "meta_bstar": -0.010046389,
        "meta_mean_motion_dot": -0.01445305,
        "meta_mean_motion_ddot": 0,
        "tle_line1": "1 66818U 25278AD  25350.25003472 -.01445305  00000+0 -10046-1 0  9996",
        "tle_line2": "2 66818  42.9987 230.4855 0001651 266.3514  29.3664 15.76344035  3525"
      },
      "geometry": {
        "type": "Point",
        "coordinates": [
          15.784483206535443,
          25.1445299006726
        ]
      }
    },
    {
      "type": "Feature",
      "properties": {
        "norad_id": 66819,
        "name": "STARLINK-35989",
        "group": "last-30-days",
        "lat": 22.87123518070932,
        "lon": 19.105033142283,
        "alt_km": 344.7700372385443,
        "timestamp": "2025-12-16T23:36:34.924347+00:00",
        "meta_object_name": "STARLINK-35989",
        "meta_object_id": "2025-278AE",
        "meta_epoch": "2025-12-16T06:00:02.999808",
        "meta_mean_motion": 15.76156978,
        "meta_eccentricity": 0.0001696,
        "meta_inclination": 42.9988,
        "meta_ra_of_asc_node": 230.4748,
        "meta_arg_of_pericenter": 275.6427,
        "meta_mean_anomaly": 24.1002,
        "meta_ephemeris_type": 0,
        "meta_classification_type": "U",
        "meta_norad_cat_id": 66819,
        "meta_element_set_no": 999,
        "meta_rev_at_epoch": 352,
        "meta_bstar": -0.0092353579,
        "meta_mean_motion_dot": -0.0133124,
        "meta_mean_motion_ddot": 0,
        "tle_line1": "1 66819U 25278AE  25350.25003472 -.01331240  00000+0 -92354-2 0  9992",
        "tle_line2": "2 66819  42.9988 230.4748 0001696 275.6427  24.1002 15.76156978  3529"
      },
      "geometry": {
        "type": "Point",
        "coordinates": [
          19.105033142283,
          22.87123518070932
        ]
      }
    },
    {
      "type": "Feature",
      "properties": {
        "norad_id": 66820,
        "name": "KOMPSAT-7",
        "group": "last-30-days",
        "lat": -12.834237583996664,
        "lon": 115.01402682425865,
        "alt_km": 568.808159905806,
        "timestamp": "2025-12-16T23:36:34.924357+00:00",
        "meta_object_name": "KOMPSAT-7",
        "meta_object_id": "2025-279A",
        "meta_epoch": "2025-12-14T22:41:19.689792",
        "meta_mean_motion": 14.98965885,
        "meta_eccentricity": 0.00087651,
        "meta_inclination": 97.6417,
        "meta_ra_of_asc_node": 294.7686,
        "meta_arg_of_pericenter": 217.2843,
        "meta_mean_anomaly": 142.7773,
        "meta_ephemeris_type": 0,
        "meta_classification_type": "U",
        "meta_norad_cat_id": 66820,
        "meta_element_set_no": 999,
        "meta_rev_at_epoch": 198,
        "meta_bstar": 0.00023616624,
        "meta_mean_motion_dot": 2.802e-05,
        "meta_mean_motion_ddot": 0,
        "tle_line1": "1 66820U 25279A   25348.94536678  .00002802  00000+0  23617-3 0  9990",
        "tle_line2": "2 66820  97.6417 294.7686 0008765 217.2843 142.7773 14.98965885  1985"
      },
      "geometry": {
        "type": "Point",
        "coordinates": [
          115.01402682425865,
          -12.834237583996664
        ]
      }
    }
  ]
}